{
  "links" : {
    "next" : "https://api.nasa.gov/neo/rest/v1/feed?start_date=2007-09-09&end_date=2007-09-09&detailed=true&api_key=t0TVs3DtDT2H8Oy2Zy8m2eVrNsAVKAexjcZXUckd",
    "prev" : "https://api.nasa.gov/neo/rest/v1/feed?start_date=2007-09-07&end_date=2007-09-07&detailed=true&api_key=t0TVs3DtDT2H8Oy2Zy8m2eVrNsAVKAexjcZXUckd",
    "self" : "https://api.nasa.gov/neo/rest/v1/feed?start_date=2007-09-08&end_date=2007-09-08&detailed=true&api_key=t0TVs3DtDT2H8Oy2Zy8m2eVrNsAVKAexjcZXUckd"
  },
  "element_count" : 10,
  "near_earth_objects" : {
    "2007-09-08" : [ {
      "links" : {
        "self" : "https://api.nasa.gov/neo/rest/v1/neo/3370167?api_key=t0TVs3DtDT2H8Oy2Zy8m2eVrNsAVKAexjcZXUckd"
      },
      "neo_reference_id" : "3370167",
      "name" : "(2007 EF)",
      "nasa_jpl_url" : "http://ssd.jpl.nasa.gov/sbdb.cgi?sstr=3370167",
      "absolute_magnitude_h" : 21.4,
      "estimated_diameter" : {
        "kilometers" : {
          "estimated_diameter_min" : 0.1394938229,
          "estimated_diameter_max" : 0.3119176705
        },
        "meters" : {
          "estimated_diameter_min" : 139.4938229344,
          "estimated_diameter_max" : 311.9176705226
        },
        "miles" : {
          "estimated_diameter_min" : 0.0866774163,
          "estimated_diameter_max" : 0.1938165949
        },
        "feet" : {
          "estimated_diameter_min" : 457.6569140361,
          "estimated_diameter_max" : 1023.3519701574
        }
      },
      "is_potentially_hazardous_asteroid" : true,
      "close_approach_data" : [ {
        "close_approach_date" : "2007-09-08",
        "epoch_date_close_approach" : 1189234800000,
        "relative_velocity" : {
          "kilometers_per_second" : "22.3793712465",
          "kilometers_per_hour" : "80565.736487373",
          "miles_per_hour" : "50060.4155412791"
        },
        "miss_distance" : {
          "astronomical" : "0.4850455139",
          "lunar" : "188.6827087402",
          "kilometers" : "72561776",
          "miles" : "45087800"
        },
        "orbiting_body" : "Earth"
      } ],
      "orbital_data" : {
        "orbit_id" : "26",
        "orbit_determination_date" : "2017-04-06 09:06:52",
        "orbit_uncertainty" : "1",
        "minimum_orbit_intersection" : ".02399",
        "jupiter_tisserand_invariant" : "7.016",
        "epoch_osculation" : "2458000.5",
        "eccentricity" : ".4101333687361926",
        "semi_major_axis" : ".8203222078396782",
        "inclination" : "21.73466211109749",
        "ascending_node_longitude" : "158.3762559267166",
        "orbital_period" : "271.3783079653338",
        "perihelion_distance" : ".4838806972892799",
        "perihelion_argument" : "226.0087131127022",
        "aphelion_distance" : "1.156763718390077",
        "perihelion_time" : "2457895.460838374853",
        "mean_anomaly" : "139.3409018891939",
        "mean_motion" : "1.326561443687632",
        "equinox" : "J2000"
      }
    }, {
      "links" : {
        "self" : "https://api.nasa.gov/neo/rest/v1/neo/3378414?api_key=t0TVs3DtDT2H8Oy2Zy8m2eVrNsAVKAexjcZXUckd"
      },
      "neo_reference_id" : "3378414",
      "name" : "(2007 LA15)",
      "nasa_jpl_url" : "http://ssd.jpl.nasa.gov/sbdb.cgi?sstr=3378414",
      "absolute_magnitude_h" : 19.5,
      "estimated_diameter" : {
        "kilometers" : {
          "estimated_diameter_min" : 0.3346223745,
          "estimated_diameter_max" : 0.7482383761
        },
        "meters" : {
          "estimated_diameter_min" : 334.6223744549,
          "estimated_diameter_max" : 748.2383760735
        },
        "miles" : {
          "estimated_diameter_min" : 0.2079246394,
          "estimated_diameter_max" : 0.464933628
        },
        "feet" : {
          "estimated_diameter_min" : 1097.8424710066,
          "estimated_diameter_max" : 2454.8503937571
        }
      },
      "is_potentially_hazardous_asteroid" : false,
      "close_approach_data" : [ {
        "close_approach_date" : "2007-09-08",
        "epoch_date_close_approach" : 1189234800000,
        "relative_velocity" : {
          "kilometers_per_second" : "8.2936151665",
          "kilometers_per_hour" : "29857.014599436",
          "miles_per_hour" : "18551.9877659662"
        },
        "miss_distance" : {
          "astronomical" : "0.134948911",
          "lunar" : "52.4951248169",
          "kilometers" : "20188070",
          "miles" : "12544285"
        },
        "orbiting_body" : "Earth"
      } ],
      "orbital_data" : {
        "orbit_id" : "56",
        "orbit_determination_date" : "2016-05-11 06:17:04",
        "orbit_uncertainty" : "0",
        "minimum_orbit_intersection" : ".0579281",
        "jupiter_tisserand_invariant" : "4.066",
        "epoch_osculation" : "2457600.5",
        "eccentricity" : ".3810582438981084",
        "semi_major_axis" : "1.726965679226268",
        "inclination" : "8.719324511709972",
        "ascending_node_longitude" : "152.6355616982573",
        "orbital_period" : "828.941699115753",
        "perihelion_distance" : "1.068891170228002",
        "perihelion_argument" : "177.0408181679439",
        "aphelion_distance" : "2.385040188224533",
        "perihelion_time" : "2457659.156082343686",
        "mean_anomaly" : "334.5263271635969",
        "mean_motion" : ".4342886844563599",
        "equinox" : "J2000"
      }
    }, {
      "links" : {
        "self" : "https://api.nasa.gov/neo/rest/v1/neo/3384030?api_key=t0TVs3DtDT2H8Oy2Zy8m2eVrNsAVKAexjcZXUckd"
      },
      "neo_reference_id" : "3384030",
      "name" : "(2007 RZ8)",
      "nasa_jpl_url" : "http://ssd.jpl.nasa.gov/sbdb.cgi?sstr=3384030",
      "absolute_magnitude_h" : 23.8,
      "estimated_diameter" : {
        "kilometers" : {
          "estimated_diameter_min" : 0.046190746,
          "estimated_diameter_max" : 0.1032856481
        },
        "meters" : {
          "estimated_diameter_min" : 46.1907460282,
          "estimated_diameter_max" : 103.2856480504
        },
        "miles" : {
          "estimated_diameter_min" : 0.0287015901,
          "estimated_diameter_max" : 0.0641787064
        },
        "feet" : {
          "estimated_diameter_min" : 151.544447199,
          "estimated_diameter_max" : 338.8636855496
        }
      },
      "is_potentially_hazardous_asteroid" : false,
      "close_approach_data" : [ {
        "close_approach_date" : "2007-09-08",
        "epoch_date_close_approach" : 1189234800000,
        "relative_velocity" : {
          "kilometers_per_second" : "5.6776813555",
          "kilometers_per_hour" : "20439.6528798794",
          "miles_per_hour" : "12700.4054241673"
        },
        "miss_distance" : {
          "astronomical" : "0.1032114577",
          "lunar" : "40.1492576599",
          "kilometers" : "15440214",
          "miles" : "9594104"
        },
        "orbiting_body" : "Earth"
      } ],
      "orbital_data" : {
        "orbit_id" : "15",
        "orbit_determination_date" : "2017-04-06 09:06:07",
        "orbit_uncertainty" : "6",
        "minimum_orbit_intersection" : ".0937947",
        "jupiter_tisserand_invariant" : "4.833",
        "epoch_osculation" : "2458000.5",
        "eccentricity" : ".1863248963303441",
        "semi_major_axis" : "1.352378829194392",
        "inclination" : "10.27046200826823",
        "ascending_node_longitude" : "343.7887509708956",
        "orbital_period" : "574.4417176178767",
        "perihelion_distance" : "1.100396984045395",
        "perihelion_argument" : "7.07722796459025",
        "aphelion_distance" : "1.604360674343389",
        "perihelion_time" : "2457802.304006500842",
        "mean_anomaly" : "124.2085236350468",
        "mean_motion" : ".6266954313361253",
        "equinox" : "J2000"
      }
    } ]
  }
}